[{"OBJECT_NAME":"MONITOR-3 (RS58S)","OBJECT_ID":"2023-091Q","EPOCH":"2026-03-09T23:24:02.583360","MEAN_MOTION":15.25747617,"ECCENTRICITY":0.0013676,"INCLINATION":97.5199,"RA_OF_ASC_NODE":131.7909,"ARG_OF_PERICENTER":91.0881,"MEAN_ANOMALY":269.1924,"EPHEMERIS_TYPE":0,"CLASSIFICATION_TYPE":"U","NORAD_CAT_ID":57180,"ELEMENT_SET_NO":999,"REV_AT_EPOCH":14915,"BSTAR":0.00054974842,"MEAN_MOTION_DOT":0.00014004,"MEAN_MOTION_DDOT":0},{"OBJECT_NAME":"STARLINK-33918","OBJECT_ID":"2025-091X","EPOCH":"2026-03-09T23:23:49.805664","MEAN_MOTION":15.27587917,"ECCENTRICITY":9.019e-5,"INCLINATION":43.0014,"RA_OF_ASC_NODE":51.1021,"ARG_OF_PERICENTER":261.6685,"MEAN_ANOMALY":98.4065,"EPHEMERIS_TYPE":0,"CLASSIFICATION_TYPE":"U","NORAD_CAT_ID":63796,"ELEMENT_SET_NO":999,"REV_AT_EPOCH":4899,"BSTAR":0.0012384687,"MEAN_MOTION_DOT":0.00033983,"MEAN_MOTION_DDOT":0}]
